STARLINK-3283           
1 50179U 21125Z   26068.75793132 -.00000280  00000+0  48227-6 0  9991
2 50179  53.2162 248.8158 0001389  85.0963 275.0188 15.08840028236616
PRSC-S1                 
1 65055U 25164A   26068.60758212  .00007316  00000+0  46631-3 0  9991
2 65055  41.1290 129.3637 0004466 348.3012  11.7698 15.08919510 33403
