[{"OBJECT_NAME":"STARLINK-3283","OBJECT_ID":"2021-125Z","EPOCH":"2026-03-09T18:11:25.266048","MEAN_MOTION":15.08840028,"ECCENTRICITY":0.00013889,"INCLINATION":53.2162,"RA_OF_ASC_NODE":248.8158,"ARG_OF_PERICENTER":85.0963,"MEAN_ANOMALY":275.0188,"EPHEMERIS_TYPE":0,"CLASSIFICATION_TYPE":"U","NORAD_CAT_ID":50179,"ELEMENT_SET_NO":999,"REV_AT_EPOCH":23661,"BSTAR":4.82273e-7,"MEAN_MOTION_DOT":-2.8e-6,"MEAN_MOTION_DDOT":0},{"OBJECT_NAME":"PRSC-S1","OBJECT_ID":"2025-164A","EPOCH":"2026-03-09T14:34:55.095168","MEAN_MOTION":15.0891951,"ECCENTRICITY":0.0004466,"INCLINATION":41.129,"RA_OF_ASC_NODE":129.3637,"ARG_OF_PERICENTER":348.3012,"MEAN_ANOMALY":11.7698,"EPHEMERIS_TYPE":0,"CLASSIFICATION_TYPE":"U","NORAD_CAT_ID":65055,"ELEMENT_SET_NO":999,"REV_AT_EPOCH":3340,"BSTAR":0.00046631,"MEAN_MOTION_DOT":7.316e-5,"MEAN_MOTION_DDOT":0}]
